{
  "type": "FeatureCollection",
  "features": [
    {
      "type": "Feature",
      "properties": {
        "norad_id": 39227,
        "name": "ARIRANG-5 (KOMPSAT-5)",
        "group": "resource",
        "lat": 3.0857588959981688,
        "lon": 3.031324429833283,
        "alt_km": 557.4582174937477,
        "timestamp": "2025-12-24T11:32:59.660830+00:00",
        "meta_object_name": "ARIRANG-5 (KOMPSAT-5)",
        "meta_object_id": "2013-042A",
        "meta_epoch": "2025-12-24T04:22:54.829920",
        "meta_mean_motion": 15.04476771,
        "meta_eccentricity": 0.000306,
        "meta_inclination": 97.6162,
        "meta_ra_of_asc_node": 182.3237,
        "meta_arg_of_pericenter": 34.6761,
        "meta_mean_anomaly": 325.4664,
        "meta_ephemeris_type": 0,
        "meta_classification_type": "U",
        "meta_norad_cat_id": 39227,
        "meta_element_set_no": 999,
        "meta_rev_at_epoch": 67754,
        "meta_bstar": 6.3804e-05,
        "meta_mean_motion_dot": 8.32e-06,
        "meta_mean_motion_ddot": 0,
        "tle_line1": "1 39227U 13042A   25358.18257905  .00000832  00000+0  63804-4 0  9990",
        "tle_line2": "2 39227  97.6162 182.3237 0003060  34.6761 325.4664 15.04476771677549"
      },
      "geometry": {
        "type": "Point",
        "coordinates": [
          3.031324429833283,
          3.0857588959981688
        ]
      }
    },
    {
      "type": "Feature",
      "properties": {
        "norad_id": 39418,
        "name": "SKYSAT-A",
        "group": "resource",
        "lat": 49.28032003985486,
        "lon": -122.97258281981297,
        "alt_km": 520.1181040629508,
        "timestamp": "2025-12-24T11:32:59.660841+00:00",
        "meta_object_name": "SKYSAT-A",
        "meta_object_id": "2013-066C",
        "meta_epoch": "2025-12-24T03:01:54.975072",
        "meta_mean_motion": 15.11683099,
        "meta_eccentricity": 0.0021552,
        "meta_inclination": 97.4086,
        "meta_ra_of_asc_node": 47.9884,
        "meta_arg_of_pericenter": 195.4454,
        "meta_mean_anomaly": 164.6121,
        "meta_ephemeris_type": 0,
        "meta_classification_type": "U",
        "meta_norad_cat_id": 39418,
        "meta_element_set_no": 999,
        "meta_rev_at_epoch": 66202,
        "meta_bstar": 0.00020316,
        "meta_mean_motion_dot": 3.412e-05,
        "meta_mean_motion_ddot": 0,
        "tle_line1": "1 39418U 13066C   25358.12633073  .00003412  00000+0  20316-3 0  9993",
        "tle_line2": "2 39418  97.4086  47.9884 0021552 195.4454 164.6121 15.11683099662028"
      },
      "geometry": {
        "type": "Point",
        "coordinates": [
          -122.97258281981297,
          49.28032003985486
        ]
      }
    },
    {
      "type": "Feature",
      "properties": {
        "norad_id": 39419,
        "name": "DUBAISAT-2",
        "group": "resource",
        "lat": 43.58451124334858,
        "lon": 175.67775801857886,
        "alt_km": 542.5457773405778,
        "timestamp": "2025-12-24T11:32:59.660852+00:00",
        "meta_object_name": "DUBAISAT-2",
        "meta_object_id": "2013-066D",
        "meta_epoch": "2025-12-24T04:34:50.378304",
        "meta_mean_motion": 15.08461979,
        "meta_eccentricity": 0.0009941,
        "meta_inclination": 97.4458,
        "meta_ra_of_asc_node": 348.2459,
        "meta_arg_of_pericenter": 276.6439,
        "meta_mean_anomaly": 83.3658,
        "meta_ephemeris_type": 0,
        "meta_classification_type": "U",
        "meta_norad_cat_id": 39419,
        "meta_element_set_no": 999,
        "meta_rev_at_epoch": 65999,
        "meta_bstar": 0.00034367,
        "meta_mean_motion_dot": 5.299e-05,
        "meta_mean_motion_ddot": 0,
        "tle_line1": "1 39419U 13066D   25358.19086086  .00005299  00000+0  34367-3 0  9993",
        "tle_line2": "2 39419  97.4458 348.2459 0009941 276.6439  83.3658 15.08461979659991"
      },
      "geometry": {
        "type": "Point",
        "coordinates": [
          175.67775801857886,
          43.58451124334858
        ]
      }
    },
    {
      "type": "Feature",
      "properties": {
        "norad_id": 39574,
        "name": "GPM-CORE",
        "group": "resource",
        "lat": 30.99714231642422,
        "lon": -170.33597028744677,
        "alt_km": 434.89078892259477,
        "timestamp": "2025-12-24T11:32:59.660862+00:00",
        "meta_object_name": "GPM-CORE",
        "meta_object_id": "2014-009C",
        "meta_epoch": "2025-12-24T02:04:37.373952",
        "meta_mean_motion": 15.44634912,
        "meta_eccentricity": 0.0009161,
        "meta_inclination": 64.9724,
        "meta_ra_of_asc_node": 174.683,
        "meta_arg_of_pericenter": 250.1064,
        "meta_mean_anomaly": 109.9089,
        "meta_ephemeris_type": 0,
        "meta_classification_type": "U",
        "meta_norad_cat_id": 39574,
        "meta_element_set_no": 999,
        "meta_rev_at_epoch": 67076,
        "meta_bstar": 0.00018893,
        "meta_mean_motion_dot": 8.614e-05,
        "meta_mean_motion_ddot": 0,
        "tle_line1": "1 39574U 14009C   25358.08654368  .00008614  00000+0  18893-3 0  9995",
        "tle_line2": "2 39574  64.9724 174.6830 0009161 250.1064 109.9089 15.44634912670767"
      },
      "geometry": {
        "type": "Point",
        "coordinates": [
          -170.33597028744677,
          30.99714231642422
        ]
      }
    },
    {
      "type": "Feature",
      "properties": {
        "norad_id": 39634,
        "name": "SENTINEL-1A",
        "group": "resource",
        "lat": -26.787836702991953,
        "lon": 179.384543655069,
        "alt_km": 701.9494738676121,
        "timestamp": "2025-12-24T11:32:59.660873+00:00",
        "meta_object_name": "SENTINEL-1A",
        "meta_object_id": "2014-016A",
        "meta_epoch": "2025-12-24T04:01:17.636736",
        "meta_mean_motion": 14.59201702,
        "meta_eccentricity": 0.0001252,
        "meta_inclination": 98.1797,
        "meta_ra_of_asc_node": 3.2399,
        "meta_arg_of_pericenter": 85.8443,
        "meta_mean_anomaly": 274.29,
        "meta_ephemeris_type": 0,
        "meta_classification_type": "U",
        "meta_norad_cat_id": 39634,
        "meta_element_set_no": 999,
        "meta_rev_at_epoch": 62449,
        "meta_bstar": 1.7619e-06,
        "meta_mean_motion_dot": -3.7e-07,
        "meta_mean_motion_ddot": 0,
        "tle_line1": "1 39634U 14016A   25358.16756524 -.00000037  00000+0  17619-5 0  9995",
        "tle_line2": "2 39634  98.1797   3.2399 0001252  85.8443 274.2900 14.59201702624496"
      },
      "geometry": {
        "type": "Point",
        "coordinates": [
          179.384543655069,
          -26.787836702991953
        ]
      }
    },
    {
      "type": "Feature",
      "properties": {
        "norad_id": 39731,
        "name": "KAZEOSAT 1",
        "group": "resource",
        "lat": 1.506374198255918,
        "lon": -109.6542076803248,
        "alt_km": 754.2947308058328,
        "timestamp": "2025-12-24T11:32:59.660883+00:00",
        "meta_object_name": "KAZEOSAT 1",
        "meta_object_id": "2014-024A",
        "meta_epoch": "2025-12-24T04:03:52.481088",
        "meta_mean_motion": 14.42068707,
        "meta_eccentricity": 0.0001212,
        "meta_inclination": 98.3421,
        "meta_ra_of_asc_node": 69.8199,
        "meta_arg_of_pericenter": 98.1983,
        "meta_mean_anomaly": 261.9344,
        "meta_ephemeris_type": 0,
        "meta_classification_type": "U",
        "meta_norad_cat_id": 39731,
        "meta_element_set_no": 999,
        "meta_rev_at_epoch": 61333,
        "meta_bstar": 7.6573e-05,
        "meta_mean_motion_dot": 2.09e-06,
        "meta_mean_motion_ddot": 0,
        "tle_line1": "1 39731U 14024A   25358.16935742  .00000209  00000+0  76573-4 0  9996",
        "tle_line2": "2 39731  98.3421  69.8199 0001212  98.1983 261.9344 14.42068707613332"
      },
      "geometry": {
        "type": "Point",
        "coordinates": [
          -109.6542076803248,
          1.506374198255918
        ]
      }
    },
    {
      "type": "Feature",
      "properties": {
        "norad_id": 39766,
        "name": "ALOS-2",
        "group": "resource",
        "lat": -20.79805125219907,
        "lon": -89.87161269727653,
        "alt_km": 636.5026222052438,
        "timestamp": "2025-12-24T11:32:59.660893+00:00",
        "meta_object_name": "ALOS-2",
        "meta_object_id": "2014-029A",
        "meta_epoch": "2025-12-24T05:46:30.887328",
        "meta_mean_motion": 14.79472967,
        "meta_eccentricity": 0.0001378,
        "meta_inclination": 97.9228,
        "meta_ra_of_asc_node": 92.9233,
        "meta_arg_of_pericenter": 97.5112,
        "meta_mean_anomaly": 262.6256,
        "meta_ephemeris_type": 0,
        "meta_classification_type": "U",
        "meta_norad_cat_id": 39766,
        "meta_element_set_no": 999,
        "meta_rev_at_epoch": 62571,
        "meta_bstar": 0.00029652,
        "meta_mean_motion_dot": 2.164e-05,
        "meta_mean_motion_ddot": 0,
        "tle_line1": "1 39766U 14029A   25358.24063527  .00002164  00000+0  29652-3 0  9998",
        "tle_line2": "2 39766  97.9228  92.9233 0001378  97.5112 262.6256 14.79472967625718"
      },
      "geometry": {
        "type": "Point",
        "coordinates": [
          -89.87161269727653,
          -20.79805125219907
        ]
      }
    }
  ]
}